STARLINK-32118          
1 60280U 24132C   26068.36989792  .00000162  00000+0  17585-4 0  9991
2 60280  53.1609  53.7564 0001271  82.9335 277.1810 15.30196864 91518
HYPERFIELD-1A           
1 60562U 24149CY  26068.76488211  .00008569  00000+0  30052-3 0  9998
2 60562  97.3842 149.5066 0003865 313.7844  46.3076 15.29681349 86836
